{
  "type": "FeatureCollection",
  "features": [
    {
      "type": "Feature",
      "properties": {
        "arrow": true,
        "name": "North Arrow",
        "description": "Arrow pointing north",
        "style": {
          "color": "rgb(255, 0, 0)",
          "fillColor": "rgb(255, 0, 0)",
          "width": 3,
          "weight": 3,
          "length": "Full",
          "opacity": 1,
          "fillOpacity": 0.8,
          "radius": 15,
          "dashArray": "",
          "lineCap": "round",
          "lineJoin": "miter"
        }
      },
      "geometry": {
        "type": "LineString",
        "coordinates": [
          [-122.4200, 37.7700],
          [-122.4200, 37.7800]
        ]
      }
    },
    {
      "type": "Feature",
      "properties": {
        "arrow": true,
        "name": "Northeast Arrow",
        "description": "Arrow pointing northeast",
        "style": {
          "color": "rgb(0, 255, 0)",
          "fillColor": "rgb(0, 255, 0)",
          "width": 3,
          "weight": 3,
          "length": "Full",
          "opacity": 1,
          "fillOpacity": 0.8,
          "radius": 15,
          "dashArray": "",
          "lineCap": "round",
          "lineJoin": "miter"
        }
      },
      "geometry": {
        "type": "LineString",
        "coordinates": [
          [-122.4400, 37.7700],
          [-122.4300, 37.7800]
        ]
      }
    },
    {
      "type": "Feature",
      "properties": {
        "arrow": true,
        "name": "East Arrow",
        "description": "Arrow pointing east",
        "style": {
          "color": "rgb(0, 0, 255)",
          "fillColor": "rgb(0, 0, 255)",
          "width": 3,
          "weight": 3,
          "length": "Full",
          "opacity": 1,
          "fillOpacity": 0.8,
          "radius": 15,
          "dashArray": "",
          "lineCap": "round",
          "lineJoin": "miter"
        }
      },
      "geometry": {
        "type": "LineString",
        "coordinates": [
          [-122.4600, 37.7750],
          [-122.4500, 37.7750]
        ]
      }
    },
    {
      "type": "Feature",
      "properties": {
        "arrow": true,
        "name": "Flow Direction",
        "description": "Water flow direction",
        "style": {
          "color": "rgb(0, 170, 255)",
          "fillColor": "rgb(0, 170, 255)",
          "width": 4,
          "weight": 4,
          "length": "Full",
          "opacity": 1,
          "fillOpacity": 0.9,
          "radius": 18,
          "dashArray": "",
          "lineCap": "round",
          "lineJoin": "miter"
        }
      },
      "geometry": {
        "type": "LineString",
        "coordinates": [
          [-122.4000, 37.7650],
          [-122.3900, 37.7700]
        ]
      }
    }
  ]
}
