{
  "type": "FeatureCollection",
  "features": [
    {
      "type": "Feature",
      "properties": {
        "name": "Elevation Path - Golden Gate to Downtown",
        "description": "Path showing elevation gradient from sea level to hills",
        "coord_properties": ["elevation"]
      },
      "geometry": {
        "type": "LineString",
        "coordinates": [
          [-122.4783, 37.8199, 0],
          [-122.4750, 37.8150, 100],
          [-122.4700, 37.8100, 300],
          [-122.4650, 37.8050, 500],
          [-122.4600, 37.8000, 700],
          [-122.4550, 37.7950, 850],
          [-122.4500, 37.7900, 1000],
          [-122.4450, 37.7850, 850],
          [-122.4400, 37.7800, 650],
          [-122.4350, 37.7750, 450],
          [-122.4300, 37.7700, 250],
          [-122.4250, 37.7650, 100],
          [-122.4194, 37.7749, 0]
        ]
      }
    }
  ]
}
