{
  "type": "FeatureCollection",
  "features": [
    {"type": "Feature", "properties": {"id": 1, "name": "Point 1", "cluster": "downtown"}, "geometry": {"type": "Point", "coordinates": [-122.4000, 37.7900]}},
    {"type": "Feature", "properties": {"id": 2, "name": "Point 2", "cluster": "downtown"}, "geometry": {"type": "Point", "coordinates": [-122.4010, 37.7905]}},
    {"type": "Feature", "properties": {"id": 3, "name": "Point 3", "cluster": "downtown"}, "geometry": {"type": "Point", "coordinates": [-122.4020, 37.7910]}},
    {"type": "Feature", "properties": {"id": 4, "name": "Point 4", "cluster": "downtown"}, "geometry": {"type": "Point", "coordinates": [-122.4005, 37.7895]}},
    {"type": "Feature", "properties": {"id": 5, "name": "Point 5", "cluster": "downtown"}, "geometry": {"type": "Point", "coordinates": [-122.4015, 37.7915]}},
    {"type": "Feature", "properties": {"id": 6, "name": "Point 6", "cluster": "downtown"}, "geometry": {"type": "Point", "coordinates": [-122.3995, 37.7890]}},
    {"type": "Feature", "properties": {"id": 7, "name": "Point 7", "cluster": "downtown"}, "geometry": {"type": "Point", "coordinates": [-122.4025, 37.7920]}},
    {"type": "Feature", "properties": {"id": 8, "name": "Point 8", "cluster": "downtown"}, "geometry": {"type": "Point", "coordinates": [-122.4008, 37.7908]}},
    {"type": "Feature", "properties": {"id": 9, "name": "Point 9", "cluster": "downtown"}, "geometry": {"type": "Point", "coordinates": [-122.4018, 37.7912]}},
    {"type": "Feature", "properties": {"id": 10, "name": "Point 10", "cluster": "downtown"}, "geometry": {"type": "Point", "coordinates": [-122.4002, 37.7902]}},
    {"type": "Feature", "properties": {"id": 11, "name": "Point 11", "cluster": "marina"}, "geometry": {"type": "Point", "coordinates": [-122.4400, 37.8050]}},
    {"type": "Feature", "properties": {"id": 12, "name": "Point 12", "cluster": "marina"}, "geometry": {"type": "Point", "coordinates": [-122.4410, 37.8055]}},
    {"type": "Feature", "properties": {"id": 13, "name": "Point 13", "cluster": "marina"}, "geometry": {"type": "Point", "coordinates": [-122.4420, 37.8060]}},
    {"type": "Feature", "properties": {"id": 14, "name": "Point 14", "cluster": "marina"}, "geometry": {"type": "Point", "coordinates": [-122.4405, 37.8045]}},
    {"type": "Feature", "properties": {"id": 15, "name": "Point 15", "cluster": "marina"}, "geometry": {"type": "Point", "coordinates": [-122.4415, 37.8065]}},
    {"type": "Feature", "properties": {"id": 16, "name": "Point 16", "cluster": "marina"}, "geometry": {"type": "Point", "coordinates": [-122.4395, 37.8040]}},
    {"type": "Feature", "properties": {"id": 17, "name": "Point 17", "cluster": "marina"}, "geometry": {"type": "Point", "coordinates": [-122.4425, 37.8070]}},
    {"type": "Feature", "properties": {"id": 18, "name": "Point 18", "cluster": "marina"}, "geometry": {"type": "Point", "coordinates": [-122.4408, 37.8058]}},
    {"type": "Feature", "properties": {"id": 19, "name": "Point 19", "cluster": "marina"}, "geometry": {"type": "Point", "coordinates": [-122.4418, 37.8062]}},
    {"type": "Feature", "properties": {"id": 20, "name": "Point 20", "cluster": "marina"}, "geometry": {"type": "Point", "coordinates": [-122.4402, 37.8052]}},
    {"type": "Feature", "properties": {"id": 21, "name": "Point 21", "cluster": "mission"}, "geometry": {"type": "Point", "coordinates": [-122.4200, 37.7600]}},
    {"type": "Feature", "properties": {"id": 22, "name": "Point 22", "cluster": "mission"}, "geometry": {"type": "Point", "coordinates": [-122.4210, 37.7605]}},
    {"type": "Feature", "properties": {"id": 23, "name": "Point 23", "cluster": "mission"}, "geometry": {"type": "Point", "coordinates": [-122.4220, 37.7610]}},
    {"type": "Feature", "properties": {"id": 24, "name": "Point 24", "cluster": "mission"}, "geometry": {"type": "Point", "coordinates": [-122.4205, 37.7595]}},
    {"type": "Feature", "properties": {"id": 25, "name": "Point 25", "cluster": "mission"}, "geometry": {"type": "Point", "coordinates": [-122.4215, 37.7615]}},
    {"type": "Feature", "properties": {"id": 26, "name": "Point 26", "cluster": "mission"}, "geometry": {"type": "Point", "coordinates": [-122.4195, 37.7590]}},
    {"type": "Feature", "properties": {"id": 27, "name": "Point 27", "cluster": "mission"}, "geometry": {"type": "Point", "coordinates": [-122.4225, 37.7620]}},
    {"type": "Feature", "properties": {"id": 28, "name": "Point 28", "cluster": "mission"}, "geometry": {"type": "Point", "coordinates": [-122.4208, 37.7608]}},
    {"type": "Feature", "properties": {"id": 29, "name": "Point 29", "cluster": "mission"}, "geometry": {"type": "Point", "coordinates": [-122.4218, 37.7612]}},
    {"type": "Feature", "properties": {"id": 30, "name": "Point 30", "cluster": "mission"}, "geometry": {"type": "Point", "coordinates": [-122.4202, 37.7602]}},
    {"type": "Feature", "properties": {"id": 31, "name": "Point 31", "cluster": "scattered"}, "geometry": {"type": "Point", "coordinates": [-122.4500, 37.7500]}},
    {"type": "Feature", "properties": {"id": 32, "name": "Point 32", "cluster": "scattered"}, "geometry": {"type": "Point", "coordinates": [-122.3900, 37.8100]}},
    {"type": "Feature", "properties": {"id": 33, "name": "Point 33", "cluster": "scattered"}, "geometry": {"type": "Point", "coordinates": [-122.4700, 37.7700]}},
    {"type": "Feature", "properties": {"id": 34, "name": "Point 34", "cluster": "scattered"}, "geometry": {"type": "Point", "coordinates": [-122.4100, 37.7400]}},
    {"type": "Feature", "properties": {"id": 35, "name": "Point 35", "cluster": "scattered"}, "geometry": {"type": "Point", "coordinates": [-122.4600, 37.8000]}}
  ]
}
