{
  "type": "FeatureCollection",
  "features": [
    {
      "type": "Feature",
      "properties": {
        "name": "Golden Gate to Oakland Traverse",
        "description": "Traverse path from Golden Gate Bridge through San Francisco, across the Bay Bridge to Oakland. Gradient colors based on elevation, speed, or roll angle.",
        "coord_properties": ["elevation", "speed", "roll"],
        "traverse_type": "cross_bay",
        "total_distance_km": 18.5
      },
      "geometry": {
        "type": "LineString",
        "coordinates": [
          [-122.4783, 37.8199, 67, 0.5, 2.1],
          [-122.4770, 37.8180, 85, 0.8, -1.3],
          [-122.4755, 37.8160, 105, 1.2, 3.5],
          [-122.4740, 37.8140, 125, 1.5, -0.8],
          [-122.4725, 37.8120, 145, 1.8, 4.2],
          [-122.4710, 37.8100, 165, 2.1, -2.5],
          [-122.4695, 37.8080, 185, 2.3, 5.1],
          [-122.4680, 37.8060, 205, 2.5, -3.2],
          [-122.4665, 37.8040, 225, 2.7, 1.8],
          [-122.4650, 37.8020, 245, 2.8, -4.5],
          [-122.4635, 37.8000, 265, 3.0, 6.2],
          [-122.4620, 37.7980, 285, 3.1, -1.9],
          [-122.4605, 37.7960, 305, 3.2, 2.7],
          [-122.4590, 37.7940, 325, 3.3, -5.3],
          [-122.4575, 37.7920, 340, 3.4, 3.8],
          [-122.4560, 37.7900, 355, 3.5, -2.4],
          [-122.4545, 37.7880, 365, 3.5, 4.5],
          [-122.4530, 37.7860, 375, 3.4, -3.7],
          [-122.4515, 37.7840, 380, 3.3, 1.2],
          [-122.4500, 37.7820, 385, 3.2, -4.8],
          [-122.4485, 37.7800, 385, 3.0, 5.6],
          [-122.4470, 37.7780, 380, 2.8, -2.1],
          [-122.4455, 37.7760, 375, 2.6, 3.4],
          [-122.4440, 37.7740, 365, 2.4, -5.9],
          [-122.4425, 37.7720, 355, 2.2, 2.8],
          [-122.4410, 37.7700, 345, 2.0, -3.5],
          [-122.4395, 37.7680, 330, 1.8, 4.7],
          [-122.4380, 37.7660, 315, 1.6, -1.6],
          [-122.4365, 37.7640, 295, 1.5, 6.1],
          [-122.4350, 37.7620, 275, 1.4, -4.2],
          [-122.4335, 37.7600, 255, 1.3, 2.9],
          [-122.4320, 37.7580, 235, 1.2, -5.4],
          [-122.4305, 37.7560, 215, 1.2, 3.6],
          [-122.4290, 37.7540, 195, 1.3, -2.8],
          [-122.4275, 37.7520, 175, 1.4, 4.9],
          [-122.4260, 37.7500, 155, 1.5, -3.3],
          [-122.4245, 37.7480, 135, 1.7, 5.7],
          [-122.4230, 37.7460, 115, 1.9, -1.5],
          [-122.4215, 37.7440, 95, 2.1, 2.4],
          [-122.4200, 37.7420, 75, 2.3, -6.2],
          [-122.4180, 37.7400, 55, 2.5, 3.1],
          [-122.4150, 37.7385, 35, 2.7, -4.6],
          [-122.4110, 37.7375, 25, 2.8, 1.8],
          [-122.4060, 37.7370, 20, 2.9, -2.9],
          [-122.4000, 37.7375, 18, 3.0, 5.3],
          [-122.3930, 37.7385, 15, 3.0, -3.8],
          [-122.3850, 37.7400, 12, 3.0, 2.6],
          [-122.3760, 37.7420, 10, 2.9, -5.1],
          [-122.3660, 37.7445, 8, 2.8, 4.4],
          [-122.3550, 37.7475, 6, 2.7, -1.9],
          [-122.3440, 37.7510, 5, 2.6, 6.0],
          [-122.3330, 37.7550, 8, 2.5, -3.2],
          [-122.3220, 37.7595, 12, 2.4, 2.5],
          [-122.3110, 37.7645, 18, 2.3, -4.7],
          [-122.3000, 37.7700, 25, 2.2, 3.9],
          [-122.2900, 37.7760, 35, 2.0, -2.6],
          [-122.2810, 37.7825, 48, 1.8, 5.8],
          [-122.2730, 37.7895, 65, 1.6, -3.4],
          [-122.2660, 37.7970, 85, 1.4, 2.1],
          [-122.2600, 37.8050, 108, 1.2, -5.5],
          [-122.2550, 37.8130, 132, 1.0, 4.2],
          [-122.2510, 37.8210, 155, 0.9, -2.3],
          [-122.2480, 37.8290, 175, 0.8, 3.7],
          [-122.2460, 37.8370, 192, 0.6, -4.1],
          [-122.2450, 37.8450, 205, 0.5, 1.5]
        ]
      }
    }
  ]
}
