{
  "type": "FeatureCollection",
  "properties": {
    "coord_properties": [
      null,
      null,
      "elevation",
      "speed",
      "roll"
    ]
  },
  "features": [
    {
      "type": "Feature",
      "properties": {
        "name": "3D Spiral Ascent",
        "coord_properties": [
          null,
          null,
          "elevation",
          "speed",
          "roll"
        ],
        "traverse_type": "spiral_ascent",
        "total_distance_km": 15.2
      },
      "geometry": {
        "type": "LineString",
        "coordinates": [
          [
            -122.4676,
            37.81,
            50.0,
            0.5,
            0.0
          ],
          [
            -122.467748,
            37.811182,
            125.6,
            0.74,
            3.29
          ],
          [
            -122.468474,
            37.812212,
            201.3,
            0.98,
            3.74
          ],
          [
            -122.469659,
            37.81281,
            276.9,
            1.22,
            0.96
          ],
          [
            -122.471055,
            37.812781,
            352.6,
            1.45,
            -2.65
          ],
          [
            -122.472334,
            37.812068,
            428.2,
            1.68,
            -3.97
          ],
          [
            -122.473167,
            37.810781,
            503.8,
            1.89,
            -1.86
          ],
          [
            -122.473306,
            37.809185,
            579.5,
            2.1,
            1.86
          ],
          [
            -122.472656,
            37.807647,
            655.1,
            2.3,
            3.97
          ],
          [
            -122.471309,
            37.806548,
            730.8,
            2.49,
            2.65
          ],
          [
            -122.469538,
            37.806192,
            806.4,
            2.66,
            -0.96
          ],
          [
            -122.467739,
            37.806725,
            882.1,
            2.82,
            -3.74
          ],
          [
            -122.466349,
            37.808084,
            957.7,
            2.97,
            -3.29
          ],
          [
            -122.465733,
            37.81,
            1033.3,
            3.1,
            -0.0
          ],
          [
            -122.466095,
            37.81205,
            1109.0,
            3.21,
            3.29
          ],
          [
            -122.467413,
            37.813748,
            1184.6,
            3.31,
            3.74
          ],
          [
            -122.469434,
            37.814663,
            1260.3,
            3.38,
            0.96
          ],
          [
            -122.471717,
            37.814526,
            1335.9,
            3.44,
            -2.65
          ],
          [
            -122.473731,
            37.813305,
            1411.5,
            3.48,
            -3.97
          ],
          [
            -122.474979,
            37.811227,
            1487.2,
            3.5,
            -1.86
          ],
          [
            -122.475119,
            37.808738,
            1562.8,
            3.5,
            1.86
          ],
          [
            -122.474053,
            37.806409,
            1638.5,
            3.48,
            3.97
          ],
          [
            -122.471971,
            37.804802,
            1714.1,
            3.44,
            2.65
          ],
          [
            -122.469313,
            37.804339,
            1789.7,
            3.38,
            -0.96
          ],
          [
            -122.466679,
            37.805189,
            1865.4,
            3.31,
            -3.74
          ],
          [
            -122.464696,
            37.807216,
            1941.0,
            3.21,
            -3.29
          ],
          [
            -122.463867,
            37.81,
            2016.7,
            3.1,
            -0.0
          ],
          [
            -122.464442,
            37.812917,
            2092.3,
            2.97,
            3.29
          ],
          [
            -122.466353,
            37.815284,
            2167.9,
            2.82,
            3.74
          ],
          [
            -122.469209,
            37.816516,
            2243.6,
            2.66,
            0.96
          ],
          [
            -122.472379,
            37.816272,
            2319.2,
            2.49,
            -2.65
          ],
          [
            -122.475128,
            37.814543,
            2394.9,
            2.3,
            -3.97
          ],
          [
            -122.476792,
            37.811674,
            2470.5,
            2.1,
            -1.86
          ],
          [
            -122.476931,
            37.808292,
            2546.2,
            1.89,
            1.86
          ],
          [
            -122.475451,
            37.805171,
            2621.8,
            1.68,
            3.97
          ],
          [
            -122.472633,
            37.803057,
            2697.4,
            1.45,
            2.65
          ],
          [
            -122.469088,
            37.802486,
            2773.1,
            1.22,
            -0.96
          ],
          [
            -122.465619,
            37.803652,
            2848.7,
            0.98,
            -3.74
          ],
          [
            -122.463043,
            37.806349,
            2924.4,
            0.74,
            -3.29
          ],
          [
            -122.462,
            37.81,
            3000.0,
            0.5,
            -0.0
          ]
        ]
      }
    }
  ]
}
