{
  "type": "FeatureCollection",
  "crs": {
    "type": "name",
    "properties": {
      "name": "EPSG:4326"
    }
  },
  "features": [
    {
      "type": "Feature",
      "properties": {
        "name": "Station A",
        "station_id": "STA-001",
        "azimuth": 45,
        "elevation": 10,
        "type": "transmitter"
      },
      "geometry": {
        "type": "Point",
        "coordinates": [-122.4500, 37.7900]
      }
    },
    {
      "type": "Feature",
      "properties": {
        "name": "Station B",
        "station_id": "STA-002",
        "azimuth": 90,
        "elevation": 5,
        "type": "transmitter"
      },
      "geometry": {
        "type": "Point",
        "coordinates": [-122.4200, 37.7800]
      }
    },
    {
      "type": "Feature",
      "properties": {
        "name": "Station C",
        "station_id": "STA-003",
        "azimuth": 180,
        "elevation": 15,
        "type": "transmitter"
      },
      "geometry": {
        "type": "Point",
        "coordinates": [-122.4000, 37.7650]
      }
    }
  ]
}
